{"type": "FeatureCollection", "features": [ {"type": "Feature", "properties": {"norad_id": 29853, "name": "FENGYUN 1C DEB", "group": "fengyun-1c-debris", "lat": -67.56528892544092, "lon": -83.91858910199402, "alt_km": 850.6182126836084, "timestamp": "2025-12-22T09:53:37.673385+00:00", "meta": {"OBJECT_NAME": "FENGYUN 1C DEB", "OBJECT_ID": "1999-025EX", "EPOCH": "2025-12-21T06:51:50.122656", "MEAN_MOTION": 13.93825794, "ECCENTRICITY": 0.01618296, "INCLINATION": 98.4583, "RA_OF_ASC_NODE": 116.1745, "ARG_OF_PERICENTER": 198.9843, "MEAN_ANOMALY": 160.5243, "EPHEMERIS_TYPE": 0, "CLASSIFICATION_TYPE": "U", "NORAD_CAT_ID": 29853, "ELEMENT_SET_NO": 999, "REV_AT_EPOCH": 95788, "BSTAR": 0.0010371407, "MEAN_MOTION_DOT": 1.485e-05, "MEAN_MOTION_DDOT": 0}, "tle": {"line1": "1 29853U 99025EX  25355.28599679  .00001485  00000+0  10371-2 0  9998", "line2": "2 29853  98.4583 116.1745 0161829 198.9843 160.5243 13.93825794957889"}}, "geometry": {"type": "Point", "coordinates": [-83.91858910199402, -67.56528892544092]}}, {"type": "Feature", "properties": {"norad_id": 29854, "name": "FENGYUN 1C DEB", "group": "fengyun-1c-debris", "lat": 42.40328609432102, "lon": -14.688196084058552, "alt_km": 987.6391051933424, "timestamp": "2025-12-22T09:53:37.673395+00:00", "meta": {"OBJECT_NAME": "FENGYUN 1C DEB", "OBJECT_ID": "1999-025EY", "EPOCH": "2025-12-20T10:38:10.923936", "MEAN_MOTION": 13.83346851, "ECCENTRICITY": 0.01470842, "INCLINATION": 98.9274, "RA_OF_ASC_NODE": 155.1898, "ARG_OF_PERICENTER": 30.1, "MEAN_ANOMALY": 24.4912, "EPHEMERIS_TYPE": 0, "CLASSIFICATION_TYPE": "U", "NORAD_CAT_ID": 29854, "ELEMENT_SET_NO": 999, "REV_AT_EPOCH": 95450, "BSTAR": 0.00025214717, "MEAN_MOTION_DOT": 2.6e-06, "MEAN_MOTION_DDOT": 0}, "tle": {"line1": "1 29854U 99025EY  25354.44318199  .00000260  00000+0  25215-3 0  9996", "line2": "2 29854  98.9274 155.1898 0147084  30.1000  24.4912 13.83346851954501"}}, "geometry": {"type": "Point", "coordinates": [-14.688196084058552, 42.40328609432102]}}, {"type": "Feature", "properties": {"norad_id": 29855, "name": "FENGYUN 1C DEB", "group": "fengyun-1c-debris", "lat": -33.73965433910522, "lon": 111.61003128392656, "alt_km": 1023.0871030451008, "timestamp": "2025-12-22T09:53:37.673405+00:00", "meta": {"OBJECT_NAME": "FENGYUN 1C DEB", "OBJECT_ID": "1999-025EZ", "EPOCH": "2025-12-21T09:29:17.802816", "MEAN_MOTION": 14.01643727, "ECCENTRICITY": 0.01838716, "INCLINATION": 98.1817, "RA_OF_ASC_NODE": 296.2112, "ARG_OF_PERICENTER": 21.8676, "MEAN_ANOMALY": 104.4175, "EPHEMERIS_TYPE": 0, "CLASSIFICATION_TYPE": "U", "NORAD_CAT_ID": 29855, "ELEMENT_SET_NO": 999, "REV_AT_EPOCH": 95833, "BSTAR": 0.0019257432, "MEAN_MOTION_DOT": 3.346e-05, "MEAN_MOTION_DDOT": 0}, "tle": {"line1": "1 29855U 99025EZ  25355.39534494  .00003346  00000+0  19257-2 0  9996", "line2": "2 29855  98.1817 296.2112 0183871  21.8676 104.4175 14.01643727958331"}}, "geometry": {"type": "Point", "coordinates": [111.61003128392656, -33.73965433910522]}}, {"type": "Feature", "properties": {"norad_id": 29856, "name": "FENGYUN 1C DEB", "group": "fengyun-1c-debris", "lat": -71.48397595295684, "lon": 117.82017810943893, "alt_km": 561.5391493573989, "timestamp": "2025-12-22T09:53:37.673415+00:00", "meta": {"OBJECT_NAME": "FENGYUN 1C DEB", "OBJECT_ID": "1999-025FA", "EPOCH": "2025-12-21T18:21:48.653280", "MEAN_MOTION": 14.47972235, "ECCENTRICITY": 0.0262255, "INCLINATION": 98.6884, "RA_OF_ASC_NODE": 89.9873, "ARG_OF_PERICENTER": 270.5599, "MEAN_ANOMALY": 243.8073, "EPHEMERIS_TYPE": 0, "CLASSIFICATION_TYPE": "U", "NORAD_CAT_ID": 29856, "ELEMENT_SET_NO": 999, "REV_AT_EPOCH": 96505, "BSTAR": 0.0022994, "MEAN_MOTION_DOT": 0.00013158, "MEAN_MOTION_DDOT": 0}, "tle": {"line1": "1 29856U 99025FA  25355.76514645  .00013158  00000+0  22994-2 0  9998", "line2": "2 29856  98.6884  89.9873 0262255 270.5599 243.8073 14.47972235965054"}}, "geometry": {"type": "Point", "coordinates": [117.82017810943893, -71.48397595295684]}}, {"type": "Feature", "properties": {"norad_id": 29857, "name": "FENGYUN 1C DEB", "group": "fengyun-1c-debris", "lat": -44.22887267072262, "lon": 11.012071249523544, "alt_km": 866.4379849646475, "timestamp": "2025-12-22T09:53:37.673425+00:00", "meta": {"OBJECT_NAME": "FENGYUN 1C DEB", "OBJECT_ID": "1999-025FB", "EPOCH": "2025-12-21T23:40:53.088384", "MEAN_MOTION": 13.81911822, "ECCENTRICITY": 0.0192737, "INCLINATION": 98.4225, "RA_OF_ASC_NODE": 2.3393, "ARG_OF_PERICENTER": 269.0844, "MEAN_ANOMALY": 88.8226, "EPHEMERIS_TYPE": 0, "CLASSIFICATION_TYPE": "U", "NORAD_CAT_ID": 29857, "ELEMENT_SET_NO": 999, "REV_AT_EPOCH": 94903, "BSTAR": 0.0013172, "MEAN_MOTION_DOT": 1.589e-05, "MEAN_MOTION_DDOT": 0}, "tle": {"line1": "1 29857U 99025FB  25355.98672556  .00001589  00000+0  13172-2 0  9992", "line2": "2 29857  98.4225   2.3393 0192737 269.0844  88.8226 13.81911822949030"}}, "geometry": {"type": "Point", "coordinates": [11.012071249523544, -44.22887267072262]}}, {"type": "Feature", "properties": {"norad_id": 29858, "name": "FENGYUN 1C DEB", "group": "fengyun-1c-debris", "lat": 72.34576561869986, "lon": 67.09589904025717, "alt_km": 846.278574766673, "timestamp": "2025-12-22T09:53:37.673435+00:00", "meta": {"OBJECT_NAME": "FENGYUN 1C DEB", "OBJECT_ID": "1999-025FC", "EPOCH": "2025-12-18T19:00:45.604800", "MEAN_MOTION": 13.77800966, "ECCENTRICITY": 0.01979476, "INCLINATION": 99.2131, "RA_OF_ASC_NODE": 94.2433, "ARG_OF_PERICENTER": 48.2645, "MEAN_ANOMALY": 79.1128, "EPHEMERIS_TYPE": 0, "CLASSIFICATION_TYPE": "U", "NORAD_CAT_ID": 29858, "ELEMENT_SET_NO": 999, "REV_AT_EPOCH": 94637, "BSTAR": 0.00085355304, "MEAN_MOTION_DOT": 9.45e-06, "MEAN_MOTION_DDOT": 0}, "tle": {"line1": "1 29858U 99025FC  25352.79219450  .00000945  00000+0  85355-3 0  9997", "line2": "2 29858  99.2131  94.2433 0197947  48.2645  79.1128 13.77800966946374"}}, "geometry": {"type": "Point", "coordinates": [67.09589904025717, 72.34576561869986]}}, {"type": "Feature", "properties": {"norad_id": 29859, "name": "FENGYUN 1C DEB", "group": "fengyun-1c-debris", "lat": -40.464450386218125, "lon": 2.7305774940689185, "alt_km": 809.830767008284, "timestamp": "2025-12-22T09:53:37.673445+00:00", "meta": {"OBJECT_NAME": "FENGYUN 1C DEB", "OBJECT_ID": "1999-025FD", "EPOCH": "2025-12-22T00:05:27.280608", "MEAN_MOTION": 13.74081033, "ECCENTRICITY": 0.0294506, "INCLINATION": 98.3354, "RA_OF_ASC_NODE": 189.5575, "ARG_OF_PERICENTER": 187.9116, "MEAN_ANOMALY": 171.7337, "EPHEMERIS_TYPE": 0, "CLASSIFICATION_TYPE": "U", "NORAD_CAT_ID": 29859, "ELEMENT_SET_NO": 999, "REV_AT_EPOCH": 94107, "BSTAR": 0.0019884, "MEAN_MOTION_DOT": 2.523e-05, "MEAN_MOTION_DDOT": 0}, "tle": {"line1": "1 29859U 99025FD  25356.00378797  .00002523  00000+0  19884-2 0  9993", "line2": "2 29859  98.3354 189.5575 0294506 187.9116 171.7337 13.74081033941076"}}, "geometry": {"type": "Point", "coordinates": [2.7305774940689185, -40.464450386218125]}}, {"type": "Feature", "properties": {"norad_id": 29860, "name": "FENGYUN 1C DEB", "group": "fengyun-1c-debris", "lat": 56.19985027818025, "lon": -137.47210842345086, "alt_km": 1124.3952423680857, "timestamp": "2025-12-22T09:53:37.673455+00:00", "meta": {"OBJECT_NAME": "FENGYUN 1C DEB", "OBJECT_ID": "1999-025FE", "EPOCH": "2025-12-20T00:05:31.414848", "MEAN_MOTION": 13.77565437, "ECCENTRICITY": 0.0221203, "INCLINATION": 98.6169, "RA_OF_ASC_NODE": 27.2498, "ARG_OF_PERICENTER": 323.5795, "MEAN_ANOMALY": 101.1256, "EPHEMERIS_TYPE": 0, "CLASSIFICATION_TYPE": "U", "NORAD_CAT_ID": 29860, "ELEMENT_SET_NO": 999, "REV_AT_EPOCH": 94239, "BSTAR": 0.0017994, "MEAN_MOTION_DOT": 2.109e-05, "MEAN_MOTION_DDOT": 0}, "tle": {"line1": "1 29860U 99025FE  25354.00383582  .00002109  00000+0  17994-2 0  9991", "line2": "2 29860  98.6169  27.2498 0221203 323.5795 101.1256 13.77565437942393"}}, "geometry": {"type": "Point", "coordinates": [-137.47210842345086, 56.19985027818025]}}, {"type": "Feature", "properties": {"norad_id": 29865, "name": "FENGYUN 1C DEB", "group": "fengyun-1c-debris", "lat": -80.80278574102897, "lon": -15.75371302974359, "alt_km": 705.4718440890556, "timestamp": "2025-12-22T09:53:37.673465+00:00", "meta": {"OBJECT_NAME": "FENGYUN 1C DEB", "OBJECT_ID": "1999-025FK", "EPOCH": "2025-12-21T18:24:10.897056", "MEAN_MOTION": 14.82679823, "ECCENTRICITY": 0.011667, "INCLINATION": 98.9214, "RA_OF_ASC_NODE": 267.557, "ARG_OF_PERICENTER": 112.9053, "MEAN_ANOMALY": 315.7495, "EPHEMERIS_TYPE": 0, "CLASSIFICATION_TYPE": "U", "NORAD_CAT_ID": 29865, "ELEMENT_SET_NO": 999, "REV_AT_EPOCH": 892, "BSTAR": 0.00044444, "MEAN_MOTION_DOT": 3.967e-05, "MEAN_MOTION_DDOT": 0}, "tle": {"line1": "1 29865U 99025FK  25355.76679279  .00003967  00000+0  44444-3 0  9995", "line2": "2 29865  98.9214 267.5570 0116670 112.9053 315.7495 14.82679823  8922"}}, "geometry": {"type": "Point", "coordinates": [-15.75371302974359, -80.80278574102897]}}, {"type": "Feature", "properties": {"norad_id": 29866, "name": "FENGYUN 1C DEB", "group": "fengyun-1c-debris", "lat": 60.68965638609817, "lon": 176.49780012027114, "alt_km": 615.4855601320096, "timestamp": "2025-12-22T09:53:37.673475+00:00", "meta": {"OBJECT_NAME": "FENGYUN 1C DEB", "OBJECT_ID": "1999-025FL", "EPOCH": "2025-12-21T22:09:42.558336", "MEAN_MOTION": 14.64242932, "ECCENTRICITY": 0.0194918, "INCLINATION": 98.0381, "RA_OF_ASC_NODE": 341.4416, "ARG_OF_PERICENTER": 185.7987, "MEAN_ANOMALY": 239.2294, "EPHEMERIS_TYPE": 0, "CLASSIFICATION_TYPE": "U", "NORAD_CAT_ID": 29866, "ELEMENT_SET_NO": 999, "REV_AT_EPOCH": 461, "BSTAR": 0.00020238, "MEAN_MOTION_DOT": 1.349e-05, "MEAN_MOTION_DDOT": 0}, "tle": {"line1": "1 29866U 99025FL  25355.92340924  .00001349  00000+0  20238-3 0  9993", "line2": "2 29866  98.0381 341.4416 0194918 185.7987 239.2294 14.64242932  4611"}}, "geometry": {"type": "Point", "coordinates": [176.49780012027114, 60.68965638609817]}}]}